1 36160U 99025DSH 18242.29560021  .00000086  00000-0  64342-4 0  9990
2 36160  98.1658 276.4650 0137534 266.5118  92.0316 14.10706610545783
1 36161U 99025DSJ 11303.31866844 +.00003804 +00000-0 +91825-3 0  9993
2 36161 097.7173 129.3058 0232038 136.6413 225.3639 14.38552753207308
1 36162U 99025DSK 18240.94902120 +.00001187 +00000-0 +81362-3 0  9995
2 36162 097.6401 136.6159 0330114 021.9884 339.5068 13.77720624336805
1 36163U 99025DSL 18242.01336733  .00001127  00000-0  58620-3 0  9992
2 36163  99.0760 318.6820 0082466 164.0915 196.2877 14.15024995514046
1 36165U 99025DSN 11012.67006549 +.00001336 +00000-0 +93657-3 0  9994
2 36165 098.0085 183.4237 0204325 328.0288 030.8547 13.90233081161115
1 36166U 99025DSP 18170.63358916 +.00000462 +00000-0 +44547-3 0  9994
2 36166 097.5707 324.9572 0367407 152.9693 209.1120 13.56761292217224
1 36167U 99025DSQ 18240.58745292  .00000464  00000-0  16995-3 0  9992
2 36167  98.8459  13.7293 0085735 198.5301 161.2756 14.35678079504735
1 36169U 99025DSS 18241.73680589  .00003456  00000-0  39694-3 0  9994
2 36169  98.0002  61.1465 0106269 284.6975  74.2478 14.82504528568891
